{
  "type": "FeatureCollection",
  "features": [
    {
      "type": "Feature",
      "properties": {
        "norad_id": 66534,
        "name": "STARLINK-35976",
        "group": "last-30-days",
        "lat": 16.550956028707596,
        "lon": -113.30941234435835,
        "alt_km": 381.30856478189526,
        "timestamp": "2025-12-07T09:35:08.570518+00:00",
        "meta_object_name": "STARLINK-35976",
        "meta_object_id": "2025-265U",
        "meta_epoch": "2025-12-06T22:00:01.999584",
        "meta_mean_motion": 15.63720064,
        "meta_eccentricity": 0.00016472,
        "meta_inclination": 43.0005,
        "meta_ra_of_asc_node": 88.1634,
        "meta_arg_of_pericenter": 279.7443,
        "meta_mean_anomaly": 36.6672,
        "meta_ephemeris_type": 0,
        "meta_classification_type": "U",
        "meta_norad_cat_id": 66534,
        "meta_element_set_no": 999,
        "meta_rev_at_epoch": 405,
        "meta_bstar": -0.023664821,
        "meta_mean_motion_dot": -0.01997944,
        "meta_mean_motion_ddot": 0,
        "tle_line1": "1 66534U 25265U   25340.91668981 -.01997944  00000+0 -23665-1 0  9993",
        "tle_line2": "2 66534  43.0005  88.1634 0001647 279.7443  36.6672 15.63720064  4055"
      },
      "geometry": {
        "type": "Point",
        "coordinates": [
          -113.30941234435835,
          16.550956028707596
        ]
      }
    },
    {
      "type": "Feature",
      "properties": {
        "norad_id": 66535,
        "name": "STARLINK-35514",
        "group": "last-30-days",
        "lat": 15.30632329947576,
        "lon": -111.79707412607343,
        "alt_km": 381.50307407000855,
        "timestamp": "2025-12-07T09:35:08.570531+00:00",
        "meta_object_name": "STARLINK-35514",
        "meta_object_id": "2025-265V",
        "meta_epoch": "2025-12-06T22:00:01.999584",
        "meta_mean_motion": 15.63718315,
        "meta_eccentricity": 0.00016853,
        "meta_inclination": 43.0004,
        "meta_ra_of_asc_node": 88.1583,
        "meta_arg_of_pericenter": 281.0074,
        "meta_mean_anomaly": 37.321,
        "meta_ephemeris_type": 0,
        "meta_classification_type": "U",
        "meta_norad_cat_id": 66535,
        "meta_element_set_no": 999,
        "meta_rev_at_epoch": 405,
        "meta_bstar": -0.023625035,
        "meta_mean_motion_dot": -0.01994903,
        "meta_mean_motion_ddot": 0,
        "tle_line1": "1 66535U 25265V   25340.91668981 -.01994903  00000+0 -23625-1 0  9992",
        "tle_line2": "2 66535  43.0004  88.1583 0001685 281.0074  37.3210 15.63718315  4058"
      },
      "geometry": {
        "type": "Point",
        "coordinates": [
          -111.79707412607343,
          15.30632329947576
        ]
      }
    },
    {
      "type": "Feature",
      "properties": {
        "norad_id": 66536,
        "name": "STARLINK-35640",
        "group": "last-30-days",
        "lat": 14.051478748042811,
        "lon": -110.30220459669034,
        "alt_km": 381.6391044219554,
        "timestamp": "2025-12-07T09:35:08.570543+00:00",
        "meta_object_name": "STARLINK-35640",
        "meta_object_id": "2025-265W",
        "meta_epoch": "2025-12-06T22:00:01.999584",
        "meta_mean_motion": 15.63720612,
        "meta_eccentricity": 0.00016722,
        "meta_inclination": 43,
        "meta_ra_of_asc_node": 88.1538,
        "meta_arg_of_pericenter": 280.5444,
        "meta_mean_anomaly": 39.6982,
        "meta_ephemeris_type": 0,
        "meta_classification_type": "U",
        "meta_norad_cat_id": 66536,
        "meta_element_set_no": 999,
        "meta_rev_at_epoch": 403,
        "meta_bstar": -0.02363742,
        "meta_mean_motion_dot": -0.01995972,
        "meta_mean_motion_ddot": 0,
        "tle_line1": "1 66536U 25265W   25340.91668981 -.01995972  00000+0 -23637-1 0  9993",
        "tle_line2": "2 66536  43.0000  88.1538 0001672 280.5444  39.6982 15.63720612  4038"
      },
      "geometry": {
        "type": "Point",
        "coordinates": [
          -110.30220459669034,
          14.051478748042811
        ]
      }
    },
    {
      "type": "Feature",
      "properties": {
        "norad_id": 66537,
        "name": "STARLINK-35582",
        "group": "last-30-days",
        "lat": 12.787891637947295,
        "lon": -108.82427036796804,
        "alt_km": 381.72293993602034,
        "timestamp": "2025-12-07T09:35:08.570553+00:00",
        "meta_object_name": "STARLINK-35582",
        "meta_object_id": "2025-265X",
        "meta_epoch": "2025-12-06T22:00:01.999584",
        "meta_mean_motion": 15.63721026,
        "meta_eccentricity": 0.00016852,
        "meta_inclination": 43.0003,
        "meta_ra_of_asc_node": 88.1488,
        "meta_arg_of_pericenter": 277.2017,
        "meta_mean_anomaly": 44.9605,
        "meta_ephemeris_type": 0,
        "meta_classification_type": "U",
        "meta_norad_cat_id": 66537,
        "meta_element_set_no": 999,
        "meta_rev_at_epoch": 405,
        "meta_bstar": -0.023666848,
        "meta_mean_motion_dot": -0.01998191,
        "meta_mean_motion_ddot": 0,
        "tle_line1": "1 66537U 25265X   25340.91668981 -.01998191  00000+0 -23667-1 0  9993",
        "tle_line2": "2 66537  43.0003  88.1488 0001685 277.2017  44.9605 15.63721026  4052"
      },
      "geometry": {
        "type": "Point",
        "coordinates": [
          -108.82427036796804,
          12.787891637947295
        ]
      }
    },
    {
      "type": "Feature",
      "properties": {
        "norad_id": 66538,
        "name": "STARLINK-35577",
        "group": "last-30-days",
        "lat": 11.515997224684618,
        "lon": -107.36126721358406,
        "alt_km": 381.9714452867038,
        "timestamp": "2025-12-07T09:35:08.570587+00:00",
        "meta_object_name": "STARLINK-35577",
        "meta_object_id": "2025-265Y",
        "meta_epoch": "2025-12-06T22:00:01.999584",
        "meta_mean_motion": 15.63718958,
        "meta_eccentricity": 0.00017247,
        "meta_inclination": 43.0004,
        "meta_ra_of_asc_node": 88.1437,
        "meta_arg_of_pericenter": 280.8142,
        "meta_mean_anomaly": 43.2649,
        "meta_ephemeris_type": 0,
        "meta_classification_type": "U",
        "meta_norad_cat_id": 66538,
        "meta_element_set_no": 999,
        "meta_rev_at_epoch": 405,
        "meta_bstar": -0.023626895,
        "meta_mean_motion_dot": -0.01995117,
        "meta_mean_motion_ddot": 0,
        "tle_line1": "1 66538U 25265Y   25340.91668981 -.01995117  00000+0 -23627-1 0  9995",
        "tle_line2": "2 66538  43.0004  88.1437 0001724 280.8142  43.2649 15.63718958  4051"
      },
      "geometry": {
        "type": "Point",
        "coordinates": [
          -107.36126721358406,
          11.515997224684618
        ]
      }
    },
    {
      "type": "Feature",
      "properties": {
        "norad_id": 66539,
        "name": "STARLINK-35697",
        "group": "last-30-days",
        "lat": 10.236010302824463,
        "lon": -105.91072829978583,
        "alt_km": 382.04984373180923,
        "timestamp": "2025-12-07T09:35:08.570598+00:00",
        "meta_object_name": "STARLINK-35697",
        "meta_object_id": "2025-265Z",
        "meta_epoch": "2025-12-06T22:00:01.999584",
        "meta_mean_motion": 15.63720117,
        "meta_eccentricity": 0.00016238,
        "meta_inclination": 43.0005,
        "meta_ra_of_asc_node": 88.1385,
        "meta_arg_of_pericenter": 279.178,
        "meta_mean_anomaly": 46.8188,
        "meta_ephemeris_type": 0,
        "meta_classification_type": "U",
        "meta_norad_cat_id": 66539,
        "meta_element_set_no": 999,
        "meta_rev_at_epoch": 405,
        "meta_bstar": -0.023652661,
        "meta_mean_motion_dot": -0.01997028,
        "meta_mean_motion_ddot": 0,
        "tle_line1": "1 66539U 25265Z   25340.91668981 -.01997028  00000+0 -23653-1 0  9998",
        "tle_line2": "2 66539  43.0005  88.1385 0001623 279.1780  46.8188 15.63720117  4059"
      },
      "geometry": {
        "type": "Point",
        "coordinates": [
          -105.91072829978583,
          10.236010302824463
        ]
      }
    },
    {
      "type": "Feature",
      "properties": {
        "norad_id": 66540,
        "name": "STARLINK-35818",
        "group": "last-30-days",
        "lat": 8.950430011853411,
        "lon": -104.47224100785004,
        "alt_km": 382.2296042259204,
        "timestamp": "2025-12-07T09:35:08.570608+00:00",
        "meta_object_name": "STARLINK-35818",
        "meta_object_id": "2025-265AA",
        "meta_epoch": "2025-12-06T22:00:01.999584",
        "meta_mean_motion": 15.63719538,
        "meta_eccentricity": 0.00016352,
        "meta_inclination": 43.0001,
        "meta_ra_of_asc_node": 88.1341,
        "meta_arg_of_pericenter": 280.4137,
        "meta_mean_anomaly": 47.4996,
        "meta_ephemeris_type": 0,
        "meta_classification_type": "U",
        "meta_norad_cat_id": 66540,
        "meta_element_set_no": 999,
        "meta_rev_at_epoch": 405,
        "meta_bstar": -0.023636588,
        "meta_mean_motion_dot": -0.01995806,
        "meta_mean_motion_ddot": 0,
        "tle_line1": "1 66540U 25265AA  25340.91668981 -.01995806  00000+0 -23637-1 0  9994",
        "tle_line2": "2 66540  43.0001  88.1341 0001635 280.4137  47.4996 15.63719538  4052"
      },
      "geometry": {
        "type": "Point",
        "coordinates": [
          -104.47224100785004,
          8.950430011853411
        ]
      }
    }
  ]
}